ORBCOMM FM05 [-]        
1 25117U 97084F   24058.88526310  .00001832  00000+0  59370-3 0  9996
2 25117  45.0146 123.3998 0002911 311.8465  48.2136 14.42242984371908
ORBCOMM FM06 [+]        
1 25118U 97084G   24059.56718008  .00001908  00000+0  61638-3 0  9994
2 25118  45.0137 120.3261 0002069 306.1657 207.2437 14.42244655372946
ORBCOMM FM07 [-]        
1 25119U 97084H   24059.17882071  .00001873  00000+0  60671-3 0  9991
2 25119  45.0133 122.6773 0003776 311.4763  48.5763 14.42173006372870
ORBCOMM FM03 [-]        
1 25158U 98007B   24059.14916385  .00001262  00000+0  51361-3 0  9991
2 25158 107.9785 241.6095 0047218 355.4701   4.6005 14.31880946356120
ORBCOMM FM04 [+]        
1 25159U 98007C   24059.15076784  .00001369  00000+0  55136-3 0  9995
2 25159 107.9770 244.5027 0042839 353.0804   6.9739 14.32136433356264
ORBCOMM FM17 [-]        
1 25413U 98046A   24059.47428843  .00001252  00000+0  50577-3 0  9998
2 25413  44.9966 334.0084 0003243 349.3271  10.7505 14.32859700335208
ORBCOMM FM18 [-]        
1 25414U 98046B   24058.90889710  .00001584  00000+0  59414-3 0  9997
2 25414  44.9929 265.2744 0004312  53.8885 306.2361 14.35523701335881
ORBCOMM FM19 [+]        
1 25415U 98046C   24058.96325377  .00001544  00000+0  58215-3 0  9992
2 25415  44.9940 266.3322 0003146  46.4345  93.2254 14.35359897335856
